<?xml version="1.0" encoding="UTF-8" standalone="yes"?>
<!DOCTYPE shakemap-data [
<!ELEMENT shakemap-data (earthquake,stationlist)>
<!ELEMENT stationlist (station+)>
<!ATTLIST stationlist
  created	CDATA	#REQUIRED
>

<!ELEMENT station (comp+)>
<!ATTLIST station
  code		CDATA 			#REQUIRED
  name		CDATA 			#REQUIRED
  insttype	CDATA 			#REQUIRED
  lat		CDATA 			#REQUIRED
  lon		CDATA 			#REQUIRED
  source	(SCSN|CGS|NSMP) 	'SCSN'
  netid		CDATA			#REQUIRED
  commtype	(DIG|ANA) 		'DIG'
  dist          CDATA                   '10.0'
  loc		CDATA			''
>

<!ELEMENT comp (acc,vel,psa*)>
<!ATTLIST comp
  name          CDATA  #REQUIRED
  originalname  CDATA  #IMPLIED
>

<!ELEMENT acc EMPTY>
<!ELEMENT vel EMPTY>
<!ELEMENT psa03 EMPTY>
<!ELEMENT psa10 EMPTY>
<!ELEMENT psa30 EMPTY>
<!ATTLIST acc
  value  CDATA         #REQUIRED
  flag   CDATA        ''
>
<!ATTLIST vel
  value CDATA          #REQUIRED
  flag  CDATA         ''
>
<!ATTLIST psa03
  value CDATA          #REQUIRED
  flag  CDATA         ''
>
<!ATTLIST psa10
  value CDATA          #REQUIRED
  flag  CDATA         ''
>
<!ATTLIST psa30
  value CDATA          #REQUIRED
  flag  CDATA         ''
>
<!ELEMENT  earthquake EMPTY>
<!ATTLIST earthquake
  id 		ID	#REQUIRED
  lat		CDATA	#REQUIRED
  lon		CDATA	#REQUIRED
  mag		CDATA	#REQUIRED
  year          CDATA   #REQUIRED
  month         CDATA   #REQUIRED
  day           CDATA   #REQUIRED
  hour          CDATA   #REQUIRED
  minute        CDATA   #REQUIRED
  second        CDATA   #REQUIRED
  timezone      CDATA   #REQUIRED
  depth		CDATA	#REQUIRED
  type		CDATA	#REQUIRED
  locstring	CDATA	#REQUIRED
  pga		CDATA   #REQUIRED
  pgv		CDATA   #REQUIRED
  sp03		CDATA   #REQUIRED
  sp10		CDATA   #REQUIRED
  sp30		CDATA   #REQUIRED
  created	CDATA	#REQUIRED
>
]>
<shakemap-data code_version="3.5" map_version="451">
<earthquake id="20251007000559_27_-2690_140820_20251007000559" lat="-2.69" lon="140.82" mag="2.7" year="2025" month="10" day="07" hour="00" minute="05" second="59" timezone="WIB" depth="12.0" network="" locstring="20 km Tenggara KOTA-JAYAPURA-PAPUA" created="1759784868" />
<stationlist created="1759784868">
<station code="SJPM" name="SJPM" insttype="Episensor (ES-T, ES-U, ES-U2, DS-DH, SBEPI)" lat="-2.5698" lon="140.502" dist="37.766914" source="BMKG" netid="IA" commtype="" loc="" intensity="1.0">
<comp name="--.HNN">
<acc value="0.0153" flag="0" />
<vel value="0.0052" flag="0" />
<psa03 value="0.0260" flag="0" />
<psa10 value="0.0035" flag="T" />
<psa30 value="0.0002" flag="0" />
</comp>
<comp name="--.HNE">
<acc value="0.0180" flag="0" />
<vel value="0.0045" flag="0" />
<psa03 value="0.0225" flag="0" />
<psa10 value="0.0019" flag="T" />
<psa30 value="0.0001" flag="0" />
</comp>
<comp name="--.HNZ">
<acc value="0.0081" flag="0" />
<vel value="0.0023" flag="0" />
<psa03 value="0.0097" flag="0" />
<psa10 value="0.0011" flag="T" />
<psa30 value="0.0001" flag="0" />
</comp>
</station>

</stationlist>
</shakemap-data>
